<?xml version="1.0" encoding="UTF-8"?>
<gpx xmlns="http://www.topografix.com/GPX/1/1" version="1.1" creator="O-Tid testfixtur">
  <metadata><name>Anna</name></metadata>
  <trk><name>Anna</name><trkseg>
    <trkpt lat="59.301667" lon="18.094900"><time>2026-01-01T00:00:00Z</time></trkpt>
    <trkpt lat="59.301667" lon="18.094900"><time>2026-01-01T00:00:10Z</time></trkpt>
    <trkpt lat="59.301667" lon="18.094900"><time>2026-01-01T00:00:20Z</time></trkpt>
    <trkpt lat="59.301667" lon="18.094900"><time>2026-01-01T00:00:30Z</time></trkpt>
    <trkpt lat="59.301667" lon="18.094900"><time>2026-01-01T00:00:40Z</time></trkpt>
    <trkpt lat="59.301667" lon="18.094900"><time>2026-01-01T00:00:50Z</time></trkpt>
    <trkpt lat="59.301667" lon="18.094900"><time>2026-01-01T00:01:00Z</time></trkpt>
    <trkpt lat="59.301667" lon="18.094900"><time>2026-01-01T00:01:10Z</time></trkpt>
    <trkpt lat="59.301667" lon="18.094900"><time>2026-01-01T00:01:20Z</time></trkpt>
    <trkpt lat="59.301667" lon="18.094900"><time>2026-01-01T00:01:30Z</time></trkpt>
    <trkpt lat="59.301667" lon="18.094900"><time>2026-01-01T00:01:40Z</time></trkpt>
    <trkpt lat="59.301667" lon="18.094900"><time>2026-01-01T00:01:50Z</time></trkpt>
    <trkpt lat="59.301667" lon="18.094900"><time>2026-01-01T00:02:00Z</time></trkpt>
    <trkpt lat="59.301667" lon="18.094900"><time>2026-01-01T00:02:10Z</time></trkpt>
    <trkpt lat="59.301667" lon="18.094900"><time>2026-01-01T00:02:20Z</time></trkpt>
    <trkpt lat="59.301667" lon="18.094900"><time>2026-01-01T00:02:30Z</time></trkpt>
    <trkpt lat="59.301667" lon="18.094900"><time>2026-01-01T00:02:40Z</time></trkpt>
    <trkpt lat="59.301667" lon="18.094900"><time>2026-01-01T00:02:50Z</time></trkpt>
    <trkpt lat="59.301667" lon="18.094900"><time>2026-01-01T00:03:00Z</time></trkpt>
    <trkpt lat="59.301667" lon="18.094900"><time>2026-01-01T00:03:10Z</time></trkpt>
    <trkpt lat="59.301667" lon="18.094900"><time>2026-01-01T00:03:20Z</time></trkpt>
    <trkpt lat="59.301667" lon="18.094900"><time>2026-01-01T00:03:30Z</time></trkpt>
    <trkpt lat="59.301667" lon="18.094900"><time>2026-01-01T00:03:40Z</time></trkpt>
    <trkpt lat="59.301667" lon="18.094900"><time>2026-01-01T00:03:50Z</time></trkpt>
    <trkpt lat="59.301667" lon="18.094900"><time>2026-01-01T00:04:00Z</time></trkpt>
    <trkpt lat="59.301667" lon="18.094900"><time>2026-01-01T00:04:10Z</time></trkpt>
    <trkpt lat="59.301667" lon="18.094900"><time>2026-01-01T00:04:20Z</time></trkpt>
    <trkpt lat="59.301667" lon="18.094900"><time>2026-01-01T00:04:30Z</time></trkpt>
    <trkpt lat="59.301667" lon="18.094900"><time>2026-01-01T00:04:40Z</time></trkpt>
    <trkpt lat="59.301667" lon="18.094900"><time>2026-01-01T00:04:50Z</time></trkpt>
    <trkpt lat="59.301667" lon="18.094900"><time>2026-01-01T00:05:00Z</time></trkpt>
    <trkpt lat="59.301755" lon="18.094919"><time>2026-01-01T00:05:10Z</time></trkpt>
    <trkpt lat="59.301843" lon="18.094938"><time>2026-01-01T00:05:20Z</time></trkpt>
    <trkpt lat="59.301930" lon="18.094957"><time>2026-01-01T00:05:30Z</time></trkpt>
    <trkpt lat="59.302018" lon="18.094978"><time>2026-01-01T00:05:40Z</time></trkpt>
    <trkpt lat="59.302105" lon="18.095000"><time>2026-01-01T00:05:50Z</time></trkpt>
    <trkpt lat="59.302191" lon="18.095024"><time>2026-01-01T00:06:00Z</time></trkpt>
    <trkpt lat="59.302276" lon="18.095051"><time>2026-01-01T00:06:10Z</time></trkpt>
    <trkpt lat="59.302361" lon="18.095079"><time>2026-01-01T00:06:20Z</time></trkpt>
    <trkpt lat="59.302445" lon="18.095110"><time>2026-01-01T00:06:30Z</time></trkpt>
    <trkpt lat="59.302528" lon="18.095145"><time>2026-01-01T00:06:40Z</time></trkpt>
    <trkpt lat="59.302609" lon="18.095183"><time>2026-01-01T00:06:50Z</time></trkpt>
    <trkpt lat="59.302690" lon="18.095224"><time>2026-01-01T00:07:00Z</time></trkpt>
    <trkpt lat="59.302769" lon="18.095269"><time>2026-01-01T00:07:10Z</time></trkpt>
    <trkpt lat="59.302847" lon="18.095319"><time>2026-01-01T00:07:20Z</time></trkpt>
    <trkpt lat="59.302923" lon="18.095372"><time>2026-01-01T00:07:30Z</time></trkpt>
    <trkpt lat="59.302998" lon="18.095431"><time>2026-01-01T00:07:40Z</time></trkpt>
    <trkpt lat="59.303071" lon="18.095494"><time>2026-01-01T00:07:50Z</time></trkpt>
    <trkpt lat="59.303142" lon="18.095561"><time>2026-01-01T00:08:00Z</time></trkpt>
    <trkpt lat="59.303212" lon="18.095634"><time>2026-01-01T00:08:10Z</time></trkpt>
    <trkpt lat="59.303280" lon="18.095712"><time>2026-01-01T00:08:20Z</time></trkpt>
    <trkpt lat="59.303347" lon="18.095795"><time>2026-01-01T00:08:30Z</time></trkpt>
    <trkpt lat="59.303412" lon="18.095883"><time>2026-01-01T00:08:40Z</time></trkpt>
    <trkpt lat="59.303475" lon="18.095976"><time>2026-01-01T00:08:50Z</time></trkpt>
    <trkpt lat="59.303536" lon="18.096075"><time>2026-01-01T00:09:00Z</time></trkpt>
    <trkpt lat="59.303595" lon="18.096179"><time>2026-01-01T00:09:10Z</time></trkpt>
    <trkpt lat="59.303653" lon="18.096287"><time>2026-01-01T00:09:20Z</time></trkpt>
    <trkpt lat="59.303709" lon="18.096401"><time>2026-01-01T00:09:30Z</time></trkpt>
    <trkpt lat="59.303763" lon="18.096520"><time>2026-01-01T00:09:40Z</time></trkpt>
    <trkpt lat="59.303816" lon="18.096644"><time>2026-01-01T00:09:50Z</time></trkpt>
    <trkpt lat="59.303867" lon="18.096772"><time>2026-01-01T00:10:00Z</time></trkpt>
    <trkpt lat="59.303917" lon="18.096905"><time>2026-01-01T00:10:10Z</time></trkpt>
    <trkpt lat="59.303965" lon="18.097043"><time>2026-01-01T00:10:20Z</time></trkpt>
    <trkpt lat="59.304012" lon="18.097184"><time>2026-01-01T00:10:30Z</time></trkpt>
    <trkpt lat="59.304057" lon="18.097329"><time>2026-01-01T00:10:40Z</time></trkpt>
    <trkpt lat="59.304102" lon="18.097478"><time>2026-01-01T00:10:50Z</time></trkpt>
    <trkpt lat="59.304145" lon="18.097630"><time>2026-01-01T00:11:00Z</time></trkpt>
    <trkpt lat="59.304187" lon="18.097786"><time>2026-01-01T00:11:10Z</time></trkpt>
    <trkpt lat="59.304228" lon="18.097944"><time>2026-01-01T00:11:20Z</time></trkpt>
    <trkpt lat="59.304269" lon="18.098104"><time>2026-01-01T00:11:30Z</time></trkpt>
    <trkpt lat="59.304308" lon="18.098267"><time>2026-01-01T00:11:40Z</time></trkpt>
    <trkpt lat="59.304347" lon="18.098431"><time>2026-01-01T00:11:50Z</time></trkpt>
    <trkpt lat="59.304386" lon="18.098597"><time>2026-01-01T00:12:00Z</time></trkpt>
    <trkpt lat="59.304424" lon="18.098764"><time>2026-01-01T00:12:10Z</time></trkpt>
    <trkpt lat="59.304462" lon="18.098932"><time>2026-01-01T00:12:20Z</time></trkpt>
    <trkpt lat="59.304500" lon="18.099100"><time>2026-01-01T00:12:30Z</time></trkpt>
    <trkpt lat="59.304493" lon="18.099307"><time>2026-01-01T00:12:40Z</time></trkpt>
    <trkpt lat="59.304486" lon="18.099514"><time>2026-01-01T00:12:50Z</time></trkpt>
    <trkpt lat="59.304480" lon="18.099721"><time>2026-01-01T00:13:00Z</time></trkpt>
    <trkpt lat="59.304474" lon="18.099927"><time>2026-01-01T00:13:10Z</time></trkpt>
    <trkpt lat="59.304470" lon="18.100132"><time>2026-01-01T00:13:20Z</time></trkpt>
    <trkpt lat="59.304466" lon="18.100336"><time>2026-01-01T00:13:30Z</time></trkpt>
    <trkpt lat="59.304463" lon="18.100539"><time>2026-01-01T00:13:40Z</time></trkpt>
    <trkpt lat="59.304462" lon="18.100741"><time>2026-01-01T00:13:50Z</time></trkpt>
    <trkpt lat="59.304463" lon="18.100940"><time>2026-01-01T00:14:00Z</time></trkpt>
    <trkpt lat="59.304465" lon="18.101138"><time>2026-01-01T00:14:10Z</time></trkpt>
    <trkpt lat="59.304470" lon="18.101334"><time>2026-01-01T00:14:20Z</time></trkpt>
    <trkpt lat="59.304476" lon="18.101528"><time>2026-01-01T00:14:30Z</time></trkpt>
    <trkpt lat="59.304485" lon="18.101720"><time>2026-01-01T00:14:40Z</time></trkpt>
    <trkpt lat="59.304496" lon="18.101909"><time>2026-01-01T00:14:50Z</time></trkpt>
    <trkpt lat="59.304510" lon="18.102096"><time>2026-01-01T00:15:00Z</time></trkpt>
    <trkpt lat="59.304526" lon="18.102280"><time>2026-01-01T00:15:10Z</time></trkpt>
    <trkpt lat="59.304546" lon="18.102461"><time>2026-01-01T00:15:20Z</time></trkpt>
    <trkpt lat="59.304568" lon="18.102639"><time>2026-01-01T00:15:30Z</time></trkpt>
    <trkpt lat="59.304592" lon="18.102815"><time>2026-01-01T00:15:40Z</time></trkpt>
    <trkpt lat="59.304620" lon="18.102987"><time>2026-01-01T00:15:50Z</time></trkpt>
    <trkpt lat="59.304651" lon="18.103157"><time>2026-01-01T00:16:00Z</time></trkpt>
    <trkpt lat="59.304685" lon="18.103323"><time>2026-01-01T00:16:10Z</time></trkpt>
    <trkpt lat="59.304722" lon="18.103486"><time>2026-01-01T00:16:20Z</time></trkpt>
    <trkpt lat="59.304762" lon="18.103647"><time>2026-01-01T00:16:30Z</time></trkpt>
    <trkpt lat="59.304805" lon="18.103804"><time>2026-01-01T00:16:40Z</time></trkpt>
    <trkpt lat="59.304852" lon="18.103958"><time>2026-01-01T00:16:50Z</time></trkpt>
    <trkpt lat="59.304901" lon="18.104109"><time>2026-01-01T00:17:00Z</time></trkpt>
    <trkpt lat="59.304953" lon="18.104257"><time>2026-01-01T00:17:10Z</time></trkpt>
    <trkpt lat="59.305008" lon="18.104403"><time>2026-01-01T00:17:20Z</time></trkpt>
    <trkpt lat="59.305066" lon="18.104546"><time>2026-01-01T00:17:30Z</time></trkpt>
    <trkpt lat="59.305126" lon="18.104686"><time>2026-01-01T00:17:40Z</time></trkpt>
    <trkpt lat="59.305189" lon="18.104823"><time>2026-01-01T00:17:50Z</time></trkpt>
    <trkpt lat="59.305254" lon="18.104958"><time>2026-01-01T00:18:00Z</time></trkpt>
    <trkpt lat="59.305322" lon="18.105091"><time>2026-01-01T00:18:10Z</time></trkpt>
    <trkpt lat="59.305391" lon="18.105222"><time>2026-01-01T00:18:20Z</time></trkpt>
    <trkpt lat="59.305463" lon="18.105350"><time>2026-01-01T00:18:30Z</time></trkpt>
    <trkpt lat="59.305537" lon="18.105477"><time>2026-01-01T00:18:40Z</time></trkpt>
    <trkpt lat="59.305612" lon="18.105602"><time>2026-01-01T00:18:50Z</time></trkpt>
    <trkpt lat="59.305688" lon="18.105726"><time>2026-01-01T00:19:00Z</time></trkpt>
    <trkpt lat="59.305766" lon="18.105849"><time>2026-01-01T00:19:10Z</time></trkpt>
    <trkpt lat="59.305845" lon="18.105970"><time>2026-01-01T00:19:20Z</time></trkpt>
    <trkpt lat="59.305925" lon="18.106091"><time>2026-01-01T00:19:30Z</time></trkpt>
    <trkpt lat="59.306005" lon="18.106211"><time>2026-01-01T00:19:40Z</time></trkpt>
    <trkpt lat="59.306086" lon="18.106331"><time>2026-01-01T00:19:50Z</time></trkpt>
    <trkpt lat="59.306167" lon="18.106450"><time>2026-01-01T00:20:00Z</time></trkpt>
    <trkpt lat="59.306224" lon="18.106556"><time>2026-01-01T00:20:10Z</time></trkpt>
    <trkpt lat="59.306282" lon="18.106662"><time>2026-01-01T00:20:20Z</time></trkpt>
    <trkpt lat="59.306339" lon="18.106768"><time>2026-01-01T00:20:30Z</time></trkpt>
    <trkpt lat="59.306396" lon="18.106875"><time>2026-01-01T00:20:40Z</time></trkpt>
    <trkpt lat="59.306452" lon="18.106982"><time>2026-01-01T00:20:50Z</time></trkpt>
    <trkpt lat="59.306507" lon="18.107090"><time>2026-01-01T00:21:00Z</time></trkpt>
    <trkpt lat="59.306562" lon="18.107198"><time>2026-01-01T00:21:10Z</time></trkpt>
    <trkpt lat="59.306615" lon="18.107307"><time>2026-01-01T00:21:20Z</time></trkpt>
    <trkpt lat="59.306666" lon="18.107418"><time>2026-01-01T00:21:30Z</time></trkpt>
    <trkpt lat="59.306717" lon="18.107529"><time>2026-01-01T00:21:40Z</time></trkpt>
    <trkpt lat="59.306765" lon="18.107642"><time>2026-01-01T00:21:50Z</time></trkpt>
    <trkpt lat="59.306812" lon="18.107756"><time>2026-01-01T00:22:00Z</time></trkpt>
    <trkpt lat="59.306857" lon="18.107871"><time>2026-01-01T00:22:10Z</time></trkpt>
    <trkpt lat="59.306901" lon="18.107988"><time>2026-01-01T00:22:20Z</time></trkpt>
    <trkpt lat="59.306942" lon="18.108106"><time>2026-01-01T00:22:30Z</time></trkpt>
    <trkpt lat="59.306981" lon="18.108226"><time>2026-01-01T00:22:40Z</time></trkpt>
    <trkpt lat="59.307017" lon="18.108347"><time>2026-01-01T00:22:50Z</time></trkpt>
    <trkpt lat="59.307052" lon="18.108471"><time>2026-01-01T00:23:00Z</time></trkpt>
    <trkpt lat="59.307084" lon="18.108595"><time>2026-01-01T00:23:10Z</time></trkpt>
    <trkpt lat="59.307113" lon="18.108722"><time>2026-01-01T00:23:20Z</time></trkpt>
    <trkpt lat="59.307141" lon="18.108851"><time>2026-01-01T00:23:30Z</time></trkpt>
    <trkpt lat="59.307165" lon="18.108981"><time>2026-01-01T00:23:40Z</time></trkpt>
    <trkpt lat="59.307187" lon="18.109113"><time>2026-01-01T00:23:50Z</time></trkpt>
    <trkpt lat="59.307207" lon="18.109247"><time>2026-01-01T00:24:00Z</time></trkpt>
    <trkpt lat="59.307224" lon="18.109383"><time>2026-01-01T00:24:10Z</time></trkpt>
    <trkpt lat="59.307239" lon="18.109521"><time>2026-01-01T00:24:20Z</time></trkpt>
    <trkpt lat="59.307252" lon="18.109661"><time>2026-01-01T00:24:30Z</time></trkpt>
    <trkpt lat="59.307262" lon="18.109802"><time>2026-01-01T00:24:40Z</time></trkpt>
    <trkpt lat="59.307269" lon="18.109945"><time>2026-01-01T00:24:50Z</time></trkpt>
    <trkpt lat="59.307275" lon="18.110089"><time>2026-01-01T00:25:00Z</time></trkpt>
    <trkpt lat="59.307278" lon="18.110236"><time>2026-01-01T00:25:10Z</time></trkpt>
    <trkpt lat="59.307280" lon="18.110383"><time>2026-01-01T00:25:20Z</time></trkpt>
    <trkpt lat="59.307279" lon="18.110532"><time>2026-01-01T00:25:30Z</time></trkpt>
    <trkpt lat="59.307276" lon="18.110683"><time>2026-01-01T00:25:40Z</time></trkpt>
    <trkpt lat="59.307272" lon="18.110835"><time>2026-01-01T00:25:50Z</time></trkpt>
    <trkpt lat="59.307266" lon="18.110988"><time>2026-01-01T00:26:00Z</time></trkpt>
    <trkpt lat="59.307259" lon="18.111142"><time>2026-01-01T00:26:10Z</time></trkpt>
    <trkpt lat="59.307251" lon="18.111297"><time>2026-01-01T00:26:20Z</time></trkpt>
    <trkpt lat="59.307241" lon="18.111453"><time>2026-01-01T00:26:30Z</time></trkpt>
    <trkpt lat="59.307230" lon="18.111610"><time>2026-01-01T00:26:40Z</time></trkpt>
    <trkpt lat="59.307218" lon="18.111767"><time>2026-01-01T00:26:50Z</time></trkpt>
    <trkpt lat="59.307206" lon="18.111925"><time>2026-01-01T00:27:00Z</time></trkpt>
    <trkpt lat="59.307193" lon="18.112083"><time>2026-01-01T00:27:10Z</time></trkpt>
    <trkpt lat="59.307180" lon="18.112241"><time>2026-01-01T00:27:20Z</time></trkpt>
    <trkpt lat="59.307167" lon="18.112400"><time>2026-01-01T00:27:30Z</time></trkpt>
    <trkpt lat="59.307095" lon="18.112376"><time>2026-01-01T00:27:40Z</time></trkpt>
    <trkpt lat="59.307023" lon="18.112353"><time>2026-01-01T00:27:50Z</time></trkpt>
    <trkpt lat="59.306951" lon="18.112330"><time>2026-01-01T00:28:00Z</time></trkpt>
    <trkpt lat="59.306880" lon="18.112309"><time>2026-01-01T00:28:10Z</time></trkpt>
    <trkpt lat="59.306809" lon="18.112289"><time>2026-01-01T00:28:20Z</time></trkpt>
    <trkpt lat="59.306738" lon="18.112270"><time>2026-01-01T00:28:30Z</time></trkpt>
    <trkpt lat="59.306667" lon="18.112253"><time>2026-01-01T00:28:40Z</time></trkpt>
    <trkpt lat="59.306597" lon="18.112239"><time>2026-01-01T00:28:50Z</time></trkpt>
    <trkpt lat="59.306528" lon="18.112228"><time>2026-01-01T00:29:00Z</time></trkpt>
    <trkpt lat="59.306458" lon="18.112219"><time>2026-01-01T00:29:10Z</time></trkpt>
    <trkpt lat="59.306390" lon="18.112213"><time>2026-01-01T00:29:20Z</time></trkpt>
    <trkpt lat="59.306322" lon="18.112211"><time>2026-01-01T00:29:30Z</time></trkpt>
    <trkpt lat="59.306254" lon="18.112212"><time>2026-01-01T00:29:40Z</time></trkpt>
    <trkpt lat="59.306188" lon="18.112218"><time>2026-01-01T00:29:50Z</time></trkpt>
    <trkpt lat="59.306122" lon="18.112227"><time>2026-01-01T00:30:00Z</time></trkpt>
    <trkpt lat="59.306057" lon="18.112241"><time>2026-01-01T00:30:10Z</time></trkpt>
    <trkpt lat="59.305992" lon="18.112259"><time>2026-01-01T00:30:20Z</time></trkpt>
    <trkpt lat="59.305929" lon="18.112281"><time>2026-01-01T00:30:30Z</time></trkpt>
    <trkpt lat="59.305866" lon="18.112309"><time>2026-01-01T00:30:40Z</time></trkpt>
    <trkpt lat="59.305804" lon="18.112341"><time>2026-01-01T00:30:50Z</time></trkpt>
    <trkpt lat="59.305743" lon="18.112378"><time>2026-01-01T00:31:00Z</time></trkpt>
    <trkpt lat="59.305683" lon="18.112419"><time>2026-01-01T00:31:10Z</time></trkpt>
    <trkpt lat="59.305624" lon="18.112466"><time>2026-01-01T00:31:20Z</time></trkpt>
    <trkpt lat="59.305565" lon="18.112518"><time>2026-01-01T00:31:30Z</time></trkpt>
    <trkpt lat="59.305508" lon="18.112574"><time>2026-01-01T00:31:40Z</time></trkpt>
    <trkpt lat="59.305451" lon="18.112635"><time>2026-01-01T00:31:50Z</time></trkpt>
    <trkpt lat="59.305395" lon="18.112701"><time>2026-01-01T00:32:00Z</time></trkpt>
    <trkpt lat="59.305341" lon="18.112772"><time>2026-01-01T00:32:10Z</time></trkpt>
    <trkpt lat="59.305286" lon="18.112847"><time>2026-01-01T00:32:20Z</time></trkpt>
    <trkpt lat="59.305233" lon="18.112927"><time>2026-01-01T00:32:30Z</time></trkpt>
    <trkpt lat="59.305180" lon="18.113011"><time>2026-01-01T00:32:40Z</time></trkpt>
    <trkpt lat="59.305129" lon="18.113099"><time>2026-01-01T00:32:50Z</time></trkpt>
    <trkpt lat="59.305077" lon="18.113191"><time>2026-01-01T00:33:00Z</time></trkpt>
    <trkpt lat="59.305027" lon="18.113286"><time>2026-01-01T00:33:10Z</time></trkpt>
    <trkpt lat="59.304977" lon="18.113385"><time>2026-01-01T00:33:20Z</time></trkpt>
    <trkpt lat="59.304928" lon="18.113488"><time>2026-01-01T00:33:30Z</time></trkpt>
    <trkpt lat="59.304879" lon="18.113593"><time>2026-01-01T00:33:40Z</time></trkpt>
    <trkpt lat="59.304830" lon="18.113700"><time>2026-01-01T00:33:50Z</time></trkpt>
    <trkpt lat="59.304782" lon="18.113810"><time>2026-01-01T00:34:00Z</time></trkpt>
    <trkpt lat="59.304735" lon="18.113922"><time>2026-01-01T00:34:10Z</time></trkpt>
    <trkpt lat="59.304687" lon="18.114035"><time>2026-01-01T00:34:20Z</time></trkpt>
    <trkpt lat="59.304640" lon="18.114150"><time>2026-01-01T00:34:30Z</time></trkpt>
    <trkpt lat="59.304593" lon="18.114266"><time>2026-01-01T00:34:40Z</time></trkpt>
    <trkpt lat="59.304547" lon="18.114383"><time>2026-01-01T00:34:50Z</time></trkpt>
    <trkpt lat="59.304500" lon="18.114500"><time>2026-01-01T00:35:00Z</time></trkpt>
    <trkpt lat="59.304500" lon="18.114500"><time>2026-01-01T00:35:10Z</time></trkpt>
    <trkpt lat="59.304500" lon="18.114500"><time>2026-01-01T00:35:20Z</time></trkpt>
    <trkpt lat="59.304500" lon="18.114500"><time>2026-01-01T00:35:30Z</time></trkpt>
    <trkpt lat="59.304500" lon="18.114500"><time>2026-01-01T00:35:40Z</time></trkpt>
    <trkpt lat="59.304500" lon="18.114500"><time>2026-01-01T00:35:50Z</time></trkpt>
    <trkpt lat="59.304500" lon="18.114500"><time>2026-01-01T00:36:00Z</time></trkpt>
    <trkpt lat="59.304500" lon="18.114500"><time>2026-01-01T00:36:10Z</time></trkpt>
    <trkpt lat="59.304500" lon="18.114500"><time>2026-01-01T00:36:20Z</time></trkpt>
    <trkpt lat="59.304500" lon="18.114500"><time>2026-01-01T00:36:30Z</time></trkpt>
    <trkpt lat="59.304500" lon="18.114500"><time>2026-01-01T00:36:40Z</time></trkpt>
    <trkpt lat="59.304500" lon="18.114500"><time>2026-01-01T00:36:50Z</time></trkpt>
    <trkpt lat="59.304500" lon="18.114500"><time>2026-01-01T00:37:00Z</time></trkpt>
    <trkpt lat="59.304500" lon="18.114500"><time>2026-01-01T00:37:10Z</time></trkpt>
    <trkpt lat="59.304500" lon="18.114500"><time>2026-01-01T00:37:20Z</time></trkpt>
    <trkpt lat="59.304500" lon="18.114500"><time>2026-01-01T00:37:30Z</time></trkpt>
    <trkpt lat="59.304500" lon="18.114500"><time>2026-01-01T00:37:40Z</time></trkpt>
    <trkpt lat="59.304500" lon="18.114500"><time>2026-01-01T00:37:50Z</time></trkpt>
    <trkpt lat="59.304500" lon="18.114500"><time>2026-01-01T00:38:00Z</time></trkpt>
    <trkpt lat="59.304500" lon="18.114500"><time>2026-01-01T00:38:10Z</time></trkpt>
    <trkpt lat="59.304500" lon="18.114500"><time>2026-01-01T00:38:20Z</time></trkpt>
    <trkpt lat="59.304500" lon="18.114500"><time>2026-01-01T00:38:30Z</time></trkpt>
    <trkpt lat="59.304500" lon="18.114500"><time>2026-01-01T00:38:40Z</time></trkpt>
    <trkpt lat="59.304500" lon="18.114500"><time>2026-01-01T00:38:50Z</time></trkpt>
    <trkpt lat="59.304500" lon="18.114500"><time>2026-01-01T00:39:00Z</time></trkpt>
    <trkpt lat="59.304500" lon="18.114500"><time>2026-01-01T00:39:10Z</time></trkpt>
    <trkpt lat="59.304500" lon="18.114500"><time>2026-01-01T00:39:20Z</time></trkpt>
    <trkpt lat="59.304500" lon="18.114500"><time>2026-01-01T00:39:30Z</time></trkpt>
    <trkpt lat="59.304500" lon="18.114500"><time>2026-01-01T00:39:40Z</time></trkpt>
    <trkpt lat="59.304500" lon="18.114500"><time>2026-01-01T00:39:50Z</time></trkpt>
    <trkpt lat="59.304500" lon="18.114500"><time>2026-01-01T00:40:00Z</time></trkpt>
  </trkseg></trk>
</gpx>
