<?xml version="1.0" encoding="UTF-8"?>
<gpx xmlns="http://www.topografix.com/GPX/1/1" version="1.1" creator="O-Tid testfixtur">
  <metadata><name>Bo</name></metadata>
  <trk><name>Bo</name><trkseg>
    <trkpt lat="59.301667" lon="18.094900"><time>2026-01-01T00:00:00Z</time></trkpt>
    <trkpt lat="59.301667" lon="18.094900"><time>2026-01-01T00:00:10Z</time></trkpt>
    <trkpt lat="59.301667" lon="18.094900"><time>2026-01-01T00:00:20Z</time></trkpt>
    <trkpt lat="59.301667" lon="18.094900"><time>2026-01-01T00:00:30Z</time></trkpt>
    <trkpt lat="59.301667" lon="18.094900"><time>2026-01-01T00:00:40Z</time></trkpt>
    <trkpt lat="59.301667" lon="18.094900"><time>2026-01-01T00:00:50Z</time></trkpt>
    <trkpt lat="59.301667" lon="18.094900"><time>2026-01-01T00:01:00Z</time></trkpt>
    <trkpt lat="59.301667" lon="18.094900"><time>2026-01-01T00:01:10Z</time></trkpt>
    <trkpt lat="59.301667" lon="18.094900"><time>2026-01-01T00:01:20Z</time></trkpt>
    <trkpt lat="59.301667" lon="18.094900"><time>2026-01-01T00:01:30Z</time></trkpt>
    <trkpt lat="59.301667" lon="18.094900"><time>2026-01-01T00:01:40Z</time></trkpt>
    <trkpt lat="59.301667" lon="18.094900"><time>2026-01-01T00:01:50Z</time></trkpt>
    <trkpt lat="59.301667" lon="18.094900"><time>2026-01-01T00:02:00Z</time></trkpt>
    <trkpt lat="59.301667" lon="18.094900"><time>2026-01-01T00:02:10Z</time></trkpt>
    <trkpt lat="59.301667" lon="18.094900"><time>2026-01-01T00:02:20Z</time></trkpt>
    <trkpt lat="59.301667" lon="18.094900"><time>2026-01-01T00:02:30Z</time></trkpt>
    <trkpt lat="59.301667" lon="18.094900"><time>2026-01-01T00:02:40Z</time></trkpt>
    <trkpt lat="59.301667" lon="18.094900"><time>2026-01-01T00:02:50Z</time></trkpt>
    <trkpt lat="59.301667" lon="18.094900"><time>2026-01-01T00:03:00Z</time></trkpt>
    <trkpt lat="59.301667" lon="18.094900"><time>2026-01-01T00:03:10Z</time></trkpt>
    <trkpt lat="59.301667" lon="18.094900"><time>2026-01-01T00:03:20Z</time></trkpt>
    <trkpt lat="59.301667" lon="18.094900"><time>2026-01-01T00:03:30Z</time></trkpt>
    <trkpt lat="59.301667" lon="18.094900"><time>2026-01-01T00:03:40Z</time></trkpt>
    <trkpt lat="59.301667" lon="18.094900"><time>2026-01-01T00:03:50Z</time></trkpt>
    <trkpt lat="59.301667" lon="18.094900"><time>2026-01-01T00:04:00Z</time></trkpt>
    <trkpt lat="59.301667" lon="18.094900"><time>2026-01-01T00:04:10Z</time></trkpt>
    <trkpt lat="59.301667" lon="18.094900"><time>2026-01-01T00:04:20Z</time></trkpt>
    <trkpt lat="59.301667" lon="18.094900"><time>2026-01-01T00:04:30Z</time></trkpt>
    <trkpt lat="59.301667" lon="18.094900"><time>2026-01-01T00:04:40Z</time></trkpt>
    <trkpt lat="59.301667" lon="18.094900"><time>2026-01-01T00:04:50Z</time></trkpt>
    <trkpt lat="59.301667" lon="18.094900"><time>2026-01-01T00:05:00Z</time></trkpt>
    <trkpt lat="59.301705" lon="18.095068"><time>2026-01-01T00:05:10Z</time></trkpt>
    <trkpt lat="59.301742" lon="18.095236"><time>2026-01-01T00:05:20Z</time></trkpt>
    <trkpt lat="59.301781" lon="18.095403"><time>2026-01-01T00:05:30Z</time></trkpt>
    <trkpt lat="59.301819" lon="18.095569"><time>2026-01-01T00:05:40Z</time></trkpt>
    <trkpt lat="59.301858" lon="18.095733"><time>2026-01-01T00:05:50Z</time></trkpt>
    <trkpt lat="59.301898" lon="18.095896"><time>2026-01-01T00:06:00Z</time></trkpt>
    <trkpt lat="59.301938" lon="18.096056"><time>2026-01-01T00:06:10Z</time></trkpt>
    <trkpt lat="59.301980" lon="18.096214"><time>2026-01-01T00:06:20Z</time></trkpt>
    <trkpt lat="59.302022" lon="18.096370"><time>2026-01-01T00:06:30Z</time></trkpt>
    <trkpt lat="59.302065" lon="18.096522"><time>2026-01-01T00:06:40Z</time></trkpt>
    <trkpt lat="59.302109" lon="18.096671"><time>2026-01-01T00:06:50Z</time></trkpt>
    <trkpt lat="59.302155" lon="18.096816"><time>2026-01-01T00:07:00Z</time></trkpt>
    <trkpt lat="59.302202" lon="18.096957"><time>2026-01-01T00:07:10Z</time></trkpt>
    <trkpt lat="59.302250" lon="18.097095"><time>2026-01-01T00:07:20Z</time></trkpt>
    <trkpt lat="59.302299" lon="18.097228"><time>2026-01-01T00:07:30Z</time></trkpt>
    <trkpt lat="59.302351" lon="18.097356"><time>2026-01-01T00:07:40Z</time></trkpt>
    <trkpt lat="59.302403" lon="18.097480"><time>2026-01-01T00:07:50Z</time></trkpt>
    <trkpt lat="59.302458" lon="18.097599"><time>2026-01-01T00:08:00Z</time></trkpt>
    <trkpt lat="59.302514" lon="18.097713"><time>2026-01-01T00:08:10Z</time></trkpt>
    <trkpt lat="59.302571" lon="18.097821"><time>2026-01-01T00:08:20Z</time></trkpt>
    <trkpt lat="59.302631" lon="18.097925"><time>2026-01-01T00:08:30Z</time></trkpt>
    <trkpt lat="59.302692" lon="18.098024"><time>2026-01-01T00:08:40Z</time></trkpt>
    <trkpt lat="59.302755" lon="18.098117"><time>2026-01-01T00:08:50Z</time></trkpt>
    <trkpt lat="59.302820" lon="18.098205"><time>2026-01-01T00:09:00Z</time></trkpt>
    <trkpt lat="59.302886" lon="18.098288"><time>2026-01-01T00:09:10Z</time></trkpt>
    <trkpt lat="59.302954" lon="18.098366"><time>2026-01-01T00:09:20Z</time></trkpt>
    <trkpt lat="59.303024" lon="18.098439"><time>2026-01-01T00:09:30Z</time></trkpt>
    <trkpt lat="59.303096" lon="18.098506"><time>2026-01-01T00:09:40Z</time></trkpt>
    <trkpt lat="59.303169" lon="18.098569"><time>2026-01-01T00:09:50Z</time></trkpt>
    <trkpt lat="59.303244" lon="18.098628"><time>2026-01-01T00:10:00Z</time></trkpt>
    <trkpt lat="59.303320" lon="18.098681"><time>2026-01-01T00:10:10Z</time></trkpt>
    <trkpt lat="59.303398" lon="18.098731"><time>2026-01-01T00:10:20Z</time></trkpt>
    <trkpt lat="59.303477" lon="18.098776"><time>2026-01-01T00:10:30Z</time></trkpt>
    <trkpt lat="59.303557" lon="18.098817"><time>2026-01-01T00:10:40Z</time></trkpt>
    <trkpt lat="59.303639" lon="18.098855"><time>2026-01-01T00:10:50Z</time></trkpt>
    <trkpt lat="59.303722" lon="18.098890"><time>2026-01-01T00:11:00Z</time></trkpt>
    <trkpt lat="59.303806" lon="18.098921"><time>2026-01-01T00:11:10Z</time></trkpt>
    <trkpt lat="59.303890" lon="18.098949"><time>2026-01-01T00:11:20Z</time></trkpt>
    <trkpt lat="59.303976" lon="18.098976"><time>2026-01-01T00:11:30Z</time></trkpt>
    <trkpt lat="59.304062" lon="18.099000"><time>2026-01-01T00:11:40Z</time></trkpt>
    <trkpt lat="59.304149" lon="18.099022"><time>2026-01-01T00:11:50Z</time></trkpt>
    <trkpt lat="59.304236" lon="18.099043"><time>2026-01-01T00:12:00Z</time></trkpt>
    <trkpt lat="59.304324" lon="18.099062"><time>2026-01-01T00:12:10Z</time></trkpt>
    <trkpt lat="59.304412" lon="18.099081"><time>2026-01-01T00:12:20Z</time></trkpt>
    <trkpt lat="59.304500" lon="18.099100"><time>2026-01-01T00:12:30Z</time></trkpt>
    <trkpt lat="59.304581" lon="18.099219"><time>2026-01-01T00:12:40Z</time></trkpt>
    <trkpt lat="59.304662" lon="18.099339"><time>2026-01-01T00:12:50Z</time></trkpt>
    <trkpt lat="59.304742" lon="18.099459"><time>2026-01-01T00:13:00Z</time></trkpt>
    <trkpt lat="59.304822" lon="18.099580"><time>2026-01-01T00:13:10Z</time></trkpt>
    <trkpt lat="59.304901" lon="18.099701"><time>2026-01-01T00:13:20Z</time></trkpt>
    <trkpt lat="59.304978" lon="18.099824"><time>2026-01-01T00:13:30Z</time></trkpt>
    <trkpt lat="59.305055" lon="18.099948"><time>2026-01-01T00:13:40Z</time></trkpt>
    <trkpt lat="59.305130" lon="18.100073"><time>2026-01-01T00:13:50Z</time></trkpt>
    <trkpt lat="59.305204" lon="18.100200"><time>2026-01-01T00:14:00Z</time></trkpt>
    <trkpt lat="59.305275" lon="18.100328"><time>2026-01-01T00:14:10Z</time></trkpt>
    <trkpt lat="59.305345" lon="18.100459"><time>2026-01-01T00:14:20Z</time></trkpt>
    <trkpt lat="59.305413" lon="18.100592"><time>2026-01-01T00:14:30Z</time></trkpt>
    <trkpt lat="59.305478" lon="18.100727"><time>2026-01-01T00:14:40Z</time></trkpt>
    <trkpt lat="59.305541" lon="18.100864"><time>2026-01-01T00:14:50Z</time></trkpt>
    <trkpt lat="59.305601" lon="18.101004"><time>2026-01-01T00:15:00Z</time></trkpt>
    <trkpt lat="59.305659" lon="18.101147"><time>2026-01-01T00:15:10Z</time></trkpt>
    <trkpt lat="59.305714" lon="18.101293"><time>2026-01-01T00:15:20Z</time></trkpt>
    <trkpt lat="59.305766" lon="18.101441"><time>2026-01-01T00:15:30Z</time></trkpt>
    <trkpt lat="59.305815" lon="18.101592"><time>2026-01-01T00:15:40Z</time></trkpt>
    <trkpt lat="59.305861" lon="18.101746"><time>2026-01-01T00:15:50Z</time></trkpt>
    <trkpt lat="59.305904" lon="18.101903"><time>2026-01-01T00:16:00Z</time></trkpt>
    <trkpt lat="59.305944" lon="18.102064"><time>2026-01-01T00:16:10Z</time></trkpt>
    <trkpt lat="59.305981" lon="18.102227"><time>2026-01-01T00:16:20Z</time></trkpt>
    <trkpt lat="59.306015" lon="18.102393"><time>2026-01-01T00:16:30Z</time></trkpt>
    <trkpt lat="59.306046" lon="18.102563"><time>2026-01-01T00:16:40Z</time></trkpt>
    <trkpt lat="59.306074" lon="18.102735"><time>2026-01-01T00:16:50Z</time></trkpt>
    <trkpt lat="59.306099" lon="18.102911"><time>2026-01-01T00:17:00Z</time></trkpt>
    <trkpt lat="59.306121" lon="18.103089"><time>2026-01-01T00:17:10Z</time></trkpt>
    <trkpt lat="59.306140" lon="18.103270"><time>2026-01-01T00:17:20Z</time></trkpt>
    <trkpt lat="59.306157" lon="18.103454"><time>2026-01-01T00:17:30Z</time></trkpt>
    <trkpt lat="59.306170" lon="18.103641"><time>2026-01-01T00:17:40Z</time></trkpt>
    <trkpt lat="59.306182" lon="18.103830"><time>2026-01-01T00:17:50Z</time></trkpt>
    <trkpt lat="59.306190" lon="18.104022"><time>2026-01-01T00:18:00Z</time></trkpt>
    <trkpt lat="59.306197" lon="18.104216"><time>2026-01-01T00:18:10Z</time></trkpt>
    <trkpt lat="59.306201" lon="18.104412"><time>2026-01-01T00:18:20Z</time></trkpt>
    <trkpt lat="59.306204" lon="18.104610"><time>2026-01-01T00:18:30Z</time></trkpt>
    <trkpt lat="59.306204" lon="18.104809"><time>2026-01-01T00:18:40Z</time></trkpt>
    <trkpt lat="59.306203" lon="18.105011"><time>2026-01-01T00:18:50Z</time></trkpt>
    <trkpt lat="59.306201" lon="18.105214"><time>2026-01-01T00:19:00Z</time></trkpt>
    <trkpt lat="59.306197" lon="18.105418"><time>2026-01-01T00:19:10Z</time></trkpt>
    <trkpt lat="59.306192" lon="18.105623"><time>2026-01-01T00:19:20Z</time></trkpt>
    <trkpt lat="59.306187" lon="18.105829"><time>2026-01-01T00:19:30Z</time></trkpt>
    <trkpt lat="59.306180" lon="18.106036"><time>2026-01-01T00:19:40Z</time></trkpt>
    <trkpt lat="59.306174" lon="18.106243"><time>2026-01-01T00:19:50Z</time></trkpt>
    <trkpt lat="59.306167" lon="18.106450"><time>2026-01-01T00:20:00Z</time></trkpt>
    <trkpt lat="59.306171" lon="18.106595"><time>2026-01-01T00:20:10Z</time></trkpt>
    <trkpt lat="59.306176" lon="18.106741"><time>2026-01-01T00:20:20Z</time></trkpt>
    <trkpt lat="59.306180" lon="18.106886"><time>2026-01-01T00:20:30Z</time></trkpt>
    <trkpt lat="59.306185" lon="18.107031"><time>2026-01-01T00:20:40Z</time></trkpt>
    <trkpt lat="59.306191" lon="18.107176"><time>2026-01-01T00:20:50Z</time></trkpt>
    <trkpt lat="59.306196" lon="18.107320"><time>2026-01-01T00:21:00Z</time></trkpt>
    <trkpt lat="59.306203" lon="18.107464"><time>2026-01-01T00:21:10Z</time></trkpt>
    <trkpt lat="59.306209" lon="18.107608"><time>2026-01-01T00:21:20Z</time></trkpt>
    <trkpt lat="59.306217" lon="18.107751"><time>2026-01-01T00:21:30Z</time></trkpt>
    <trkpt lat="59.306225" lon="18.107894"><time>2026-01-01T00:21:40Z</time></trkpt>
    <trkpt lat="59.306234" lon="18.108036"><time>2026-01-01T00:21:50Z</time></trkpt>
    <trkpt lat="59.306244" lon="18.108177"><time>2026-01-01T00:22:00Z</time></trkpt>
    <trkpt lat="59.306255" lon="18.108318"><time>2026-01-01T00:22:10Z</time></trkpt>
    <trkpt lat="59.306266" lon="18.108458"><time>2026-01-01T00:22:20Z</time></trkpt>
    <trkpt lat="59.306279" lon="18.108597"><time>2026-01-01T00:22:30Z</time></trkpt>
    <trkpt lat="59.306293" lon="18.108735"><time>2026-01-01T00:22:40Z</time></trkpt>
    <trkpt lat="59.306308" lon="18.108873"><time>2026-01-01T00:22:50Z</time></trkpt>
    <trkpt lat="59.306324" lon="18.109010"><time>2026-01-01T00:23:00Z</time></trkpt>
    <trkpt lat="59.306341" lon="18.109146"><time>2026-01-01T00:23:10Z</time></trkpt>
    <trkpt lat="59.306360" lon="18.109281"><time>2026-01-01T00:23:20Z</time></trkpt>
    <trkpt lat="59.306380" lon="18.109415"><time>2026-01-01T00:23:30Z</time></trkpt>
    <trkpt lat="59.306401" lon="18.109548"><time>2026-01-01T00:23:40Z</time></trkpt>
    <trkpt lat="59.306423" lon="18.109680"><time>2026-01-01T00:23:50Z</time></trkpt>
    <trkpt lat="59.306446" lon="18.109811"><time>2026-01-01T00:24:00Z</time></trkpt>
    <trkpt lat="59.306471" lon="18.109942"><time>2026-01-01T00:24:10Z</time></trkpt>
    <trkpt lat="59.306497" lon="18.110071"><time>2026-01-01T00:24:20Z</time></trkpt>
    <trkpt lat="59.306524" lon="18.110200"><time>2026-01-01T00:24:30Z</time></trkpt>
    <trkpt lat="59.306552" lon="18.110327"><time>2026-01-01T00:24:40Z</time></trkpt>
    <trkpt lat="59.306582" lon="18.110454"><time>2026-01-01T00:24:50Z</time></trkpt>
    <trkpt lat="59.306612" lon="18.110580"><time>2026-01-01T00:25:00Z</time></trkpt>
    <trkpt lat="59.306644" lon="18.110706"><time>2026-01-01T00:25:10Z</time></trkpt>
    <trkpt lat="59.306677" lon="18.110830"><time>2026-01-01T00:25:20Z</time></trkpt>
    <trkpt lat="59.306710" lon="18.110954"><time>2026-01-01T00:25:30Z</time></trkpt>
    <trkpt lat="59.306745" lon="18.111077"><time>2026-01-01T00:25:40Z</time></trkpt>
    <trkpt lat="59.306781" lon="18.111199"><time>2026-01-01T00:25:50Z</time></trkpt>
    <trkpt lat="59.306817" lon="18.111321"><time>2026-01-01T00:26:00Z</time></trkpt>
    <trkpt lat="59.306854" lon="18.111442"><time>2026-01-01T00:26:10Z</time></trkpt>
    <trkpt lat="59.306891" lon="18.111563"><time>2026-01-01T00:26:20Z</time></trkpt>
    <trkpt lat="59.306930" lon="18.111684"><time>2026-01-01T00:26:30Z</time></trkpt>
    <trkpt lat="59.306968" lon="18.111804"><time>2026-01-01T00:26:40Z</time></trkpt>
    <trkpt lat="59.307007" lon="18.111923"><time>2026-01-01T00:26:50Z</time></trkpt>
    <trkpt lat="59.307047" lon="18.112043"><time>2026-01-01T00:27:00Z</time></trkpt>
    <trkpt lat="59.307087" lon="18.112162"><time>2026-01-01T00:27:10Z</time></trkpt>
    <trkpt lat="59.307127" lon="18.112281"><time>2026-01-01T00:27:20Z</time></trkpt>
    <trkpt lat="59.307167" lon="18.112400"><time>2026-01-01T00:27:30Z</time></trkpt>
    <trkpt lat="59.307120" lon="18.112517"><time>2026-01-01T00:27:40Z</time></trkpt>
    <trkpt lat="59.307073" lon="18.112634"><time>2026-01-01T00:27:50Z</time></trkpt>
    <trkpt lat="59.307026" lon="18.112750"><time>2026-01-01T00:28:00Z</time></trkpt>
    <trkpt lat="59.306979" lon="18.112865"><time>2026-01-01T00:28:10Z</time></trkpt>
    <trkpt lat="59.306932" lon="18.112978"><time>2026-01-01T00:28:20Z</time></trkpt>
    <trkpt lat="59.306884" lon="18.113090"><time>2026-01-01T00:28:30Z</time></trkpt>
    <trkpt lat="59.306836" lon="18.113200"><time>2026-01-01T00:28:40Z</time></trkpt>
    <trkpt lat="59.306788" lon="18.113307"><time>2026-01-01T00:28:50Z</time></trkpt>
    <trkpt lat="59.306739" lon="18.113412"><time>2026-01-01T00:29:00Z</time></trkpt>
    <trkpt lat="59.306690" lon="18.113515"><time>2026-01-01T00:29:10Z</time></trkpt>
    <trkpt lat="59.306640" lon="18.113614"><time>2026-01-01T00:29:20Z</time></trkpt>
    <trkpt lat="59.306589" lon="18.113709"><time>2026-01-01T00:29:30Z</time></trkpt>
    <trkpt lat="59.306538" lon="18.113801"><time>2026-01-01T00:29:40Z</time></trkpt>
    <trkpt lat="59.306486" lon="18.113889"><time>2026-01-01T00:29:50Z</time></trkpt>
    <trkpt lat="59.306434" lon="18.113973"><time>2026-01-01T00:30:00Z</time></trkpt>
    <trkpt lat="59.306380" lon="18.114053"><time>2026-01-01T00:30:10Z</time></trkpt>
    <trkpt lat="59.306326" lon="18.114128"><time>2026-01-01T00:30:20Z</time></trkpt>
    <trkpt lat="59.306271" lon="18.114199"><time>2026-01-01T00:30:30Z</time></trkpt>
    <trkpt lat="59.306215" lon="18.114265"><time>2026-01-01T00:30:40Z</time></trkpt>
    <trkpt lat="59.306159" lon="18.114326"><time>2026-01-01T00:30:50Z</time></trkpt>
    <trkpt lat="59.306101" lon="18.114382"><time>2026-01-01T00:31:00Z</time></trkpt>
    <trkpt lat="59.306043" lon="18.114434"><time>2026-01-01T00:31:10Z</time></trkpt>
    <trkpt lat="59.305984" lon="18.114481"><time>2026-01-01T00:31:20Z</time></trkpt>
    <trkpt lat="59.305923" lon="18.114522"><time>2026-01-01T00:31:30Z</time></trkpt>
    <trkpt lat="59.305862" lon="18.114559"><time>2026-01-01T00:31:40Z</time></trkpt>
    <trkpt lat="59.305801" lon="18.114591"><time>2026-01-01T00:31:50Z</time></trkpt>
    <trkpt lat="59.305738" lon="18.114619"><time>2026-01-01T00:32:00Z</time></trkpt>
    <trkpt lat="59.305674" lon="18.114641"><time>2026-01-01T00:32:10Z</time></trkpt>
    <trkpt lat="59.305610" lon="18.114659"><time>2026-01-01T00:32:20Z</time></trkpt>
    <trkpt lat="59.305545" lon="18.114673"><time>2026-01-01T00:32:30Z</time></trkpt>
    <trkpt lat="59.305479" lon="18.114682"><time>2026-01-01T00:32:40Z</time></trkpt>
    <trkpt lat="59.305412" lon="18.114688"><time>2026-01-01T00:32:50Z</time></trkpt>
    <trkpt lat="59.305345" lon="18.114689"><time>2026-01-01T00:33:00Z</time></trkpt>
    <trkpt lat="59.305277" lon="18.114687"><time>2026-01-01T00:33:10Z</time></trkpt>
    <trkpt lat="59.305208" lon="18.114681"><time>2026-01-01T00:33:20Z</time></trkpt>
    <trkpt lat="59.305139" lon="18.114672"><time>2026-01-01T00:33:30Z</time></trkpt>
    <trkpt lat="59.305069" lon="18.114661"><time>2026-01-01T00:33:40Z</time></trkpt>
    <trkpt lat="59.304999" lon="18.114647"><time>2026-01-01T00:33:50Z</time></trkpt>
    <trkpt lat="59.304929" lon="18.114630"><time>2026-01-01T00:34:00Z</time></trkpt>
    <trkpt lat="59.304858" lon="18.114611"><time>2026-01-01T00:34:10Z</time></trkpt>
    <trkpt lat="59.304787" lon="18.114591"><time>2026-01-01T00:34:20Z</time></trkpt>
    <trkpt lat="59.304715" lon="18.114570"><time>2026-01-01T00:34:30Z</time></trkpt>
    <trkpt lat="59.304644" lon="18.114547"><time>2026-01-01T00:34:40Z</time></trkpt>
    <trkpt lat="59.304572" lon="18.114524"><time>2026-01-01T00:34:50Z</time></trkpt>
    <trkpt lat="59.304500" lon="18.114500"><time>2026-01-01T00:35:00Z</time></trkpt>
    <trkpt lat="59.304500" lon="18.114500"><time>2026-01-01T00:35:10Z</time></trkpt>
    <trkpt lat="59.304500" lon="18.114500"><time>2026-01-01T00:35:20Z</time></trkpt>
    <trkpt lat="59.304500" lon="18.114500"><time>2026-01-01T00:35:30Z</time></trkpt>
    <trkpt lat="59.304500" lon="18.114500"><time>2026-01-01T00:35:40Z</time></trkpt>
    <trkpt lat="59.304500" lon="18.114500"><time>2026-01-01T00:35:50Z</time></trkpt>
    <trkpt lat="59.304500" lon="18.114500"><time>2026-01-01T00:36:00Z</time></trkpt>
    <trkpt lat="59.304500" lon="18.114500"><time>2026-01-01T00:36:10Z</time></trkpt>
    <trkpt lat="59.304500" lon="18.114500"><time>2026-01-01T00:36:20Z</time></trkpt>
    <trkpt lat="59.304500" lon="18.114500"><time>2026-01-01T00:36:30Z</time></trkpt>
    <trkpt lat="59.304500" lon="18.114500"><time>2026-01-01T00:36:40Z</time></trkpt>
    <trkpt lat="59.304500" lon="18.114500"><time>2026-01-01T00:36:50Z</time></trkpt>
    <trkpt lat="59.304500" lon="18.114500"><time>2026-01-01T00:37:00Z</time></trkpt>
    <trkpt lat="59.304500" lon="18.114500"><time>2026-01-01T00:37:10Z</time></trkpt>
    <trkpt lat="59.304500" lon="18.114500"><time>2026-01-01T00:37:20Z</time></trkpt>
    <trkpt lat="59.304500" lon="18.114500"><time>2026-01-01T00:37:30Z</time></trkpt>
    <trkpt lat="59.304500" lon="18.114500"><time>2026-01-01T00:37:40Z</time></trkpt>
    <trkpt lat="59.304500" lon="18.114500"><time>2026-01-01T00:37:50Z</time></trkpt>
    <trkpt lat="59.304500" lon="18.114500"><time>2026-01-01T00:38:00Z</time></trkpt>
    <trkpt lat="59.304500" lon="18.114500"><time>2026-01-01T00:38:10Z</time></trkpt>
    <trkpt lat="59.304500" lon="18.114500"><time>2026-01-01T00:38:20Z</time></trkpt>
    <trkpt lat="59.304500" lon="18.114500"><time>2026-01-01T00:38:30Z</time></trkpt>
    <trkpt lat="59.304500" lon="18.114500"><time>2026-01-01T00:38:40Z</time></trkpt>
    <trkpt lat="59.304500" lon="18.114500"><time>2026-01-01T00:38:50Z</time></trkpt>
    <trkpt lat="59.304500" lon="18.114500"><time>2026-01-01T00:39:00Z</time></trkpt>
    <trkpt lat="59.304500" lon="18.114500"><time>2026-01-01T00:39:10Z</time></trkpt>
    <trkpt lat="59.304500" lon="18.114500"><time>2026-01-01T00:39:20Z</time></trkpt>
    <trkpt lat="59.304500" lon="18.114500"><time>2026-01-01T00:39:30Z</time></trkpt>
    <trkpt lat="59.304500" lon="18.114500"><time>2026-01-01T00:39:40Z</time></trkpt>
    <trkpt lat="59.304500" lon="18.114500"><time>2026-01-01T00:39:50Z</time></trkpt>
    <trkpt lat="59.304500" lon="18.114500"><time>2026-01-01T00:40:00Z</time></trkpt>
  </trkseg></trk>
</gpx>
